{
  "norad_id": 62060,
  "name": "STARLINK-11473 [DTC]",
  "history": [
    {
      "epoch": "2026-03-28T22:33:22.077504Z",
      "apogee_km": 360.53012202593436,
      "perigee_km": 359.09628622249784,
      "latitude_deg": -6.610654438779201e-05,
      "longitude_deg": 171.91027775418354,
      "height_km": 360.43112605034315,
      "semi_major_axis_km": 6737.950204124216,
      "eccentricity": 0.0001064,
      "inclination_deg": 53.1573,
      "raan_deg": 336.6054,
      "arg_perigee_deg": 65.6476,
      "mean_anomaly_deg": 294.4652,
      "mean_motion_rev_day": 15.69679789
    }
  ]
}